{
"type": "FeatureCollection",
"name": "fb964246-c2c5-4e44-bfc3-bfd6ef005703",
"crs": { "type": "name", "properties": { "name": "urn:ogc:def:crs:OGC:1.3:CRS84" } },
"features": [
{ "type": "Feature", "properties": { "id": 0, "class": "Class1" }, "geometry": { "type": "Polygon", "coordinates": [ [ [ 55.369405299425125, 24.769238185066154 ], [ 55.369405299425125, 24.769213829141709 ], [ 55.369416028261185, 24.76919921558704 ], [ 55.369426757097244, 24.769233313881266 ], [ 55.369405299425125, 24.769238185066154 ] ] ] } },
{ "type": "Feature", "properties": { "id": 1, "class": "Class1" }, "geometry": { "type": "Polygon", "coordinates": [ [ [ 55.369711071252823, 24.769072564779915 ], [ 55.369705706834793, 24.768975141082127 ], [ 55.36977544426918, 24.768975141082127 ], [ 55.36978080868721, 24.768999497006575 ], [ 55.369796901941299, 24.769004368191464 ], [ 55.36979153752327, 24.769067693595026 ], [ 55.369711071252823, 24.769072564779915 ] ] ] } },
{ "type": "Feature", "properties": { "id": 2, "class": "Class1" }, "geometry": { "type": "Polygon", "coordinates": [ [ [ 55.37053182721138, 24.768824134350556 ], [ 55.370515733957291, 24.768814391980779 ], [ 55.370515733957291, 24.768804649610999 ], [ 55.370553284883499, 24.768770551316774 ], [ 55.370590835809708, 24.768765680131885 ], [ 55.370601564645767, 24.768772986909219 ], [ 55.370596200227737, 24.768785164871442 ], [ 55.370574742555618, 24.76879003605633 ], [ 55.370553284883499, 24.768814391980779 ], [ 55.37053182721138, 24.768824134350556 ] ] ] } },
{ "type": "Feature", "properties": { "id": 3, "class": "Class1" }, "geometry": { "type": "Polygon", "coordinates": [ [ [ 55.371164828538895, 24.767869382112234 ], [ 55.371095091104507, 24.767859639742454 ], [ 55.371095091104507, 24.767806056708672 ], [ 55.371105819940567, 24.767791443154003 ], [ 55.371127277612686, 24.767789007561561 ], [ 55.371095091104507, 24.767776829599335 ], [ 55.371095091104507, 24.767742731305109 ], [ 55.371223837137222, 24.767737860120221 ], [ 55.371223837137222, 24.767781700784226 ], [ 55.371213108301163, 24.767786571969115 ], [ 55.371213108301163, 24.767796314338892 ], [ 55.371186286211014, 24.767796314338892 ], [ 55.371180921792984, 24.76781092789356 ], [ 55.371154099702835, 24.767801185523783 ], [ 55.371116548776627, 24.767806056708672 ], [ 55.371121913194656, 24.767815799078452 ], [ 55.371132642030716, 24.767815799078452 ], [ 55.371132642030716, 24.767825541448229 ], [ 55.371143370866776, 24.767825541448229 ], [ 55.371143370866776, 24.767840155002897 ], [ 55.371154099702835, 24.767840155002897 ], [ 55.371154099702835, 24.767830412633121 ], [ 55.371164828538895, 24.767835283818009 ], [ 55.371164828538895, 24.767869382112234 ] ] ] } },
{ "type": "Feature", "properties": { "id": 4, "class": "Class1" }, "geometry": { "type": "Polygon", "coordinates": [ [ [ 55.371180921792984, 24.767674534716658 ], [ 55.371164828538895, 24.767659921161989 ], [ 55.371170192956924, 24.767650178792213 ], [ 55.371229201555252, 24.767650178792213 ], [ 55.371245294809341, 24.767659921161989 ], [ 55.37127211689949, 24.767659921161989 ], [ 55.371266752481461, 24.767664792346878 ], [ 55.37127748131752, 24.76766966353177 ], [ 55.371180921792984, 24.767674534716658 ] ] ] } },
{ "type": "Feature", "properties": { "id": 5, "class": "Class1" }, "geometry": { "type": "Polygon", "coordinates": [ [ [ 55.371218472719193, 24.767645307607321 ], [ 55.371186286211014, 24.767630694052652 ], [ 55.371164828538895, 24.767635565237544 ], [ 55.371164828538895, 24.767625822867764 ], [ 55.371223837137222, 24.767616080497987 ], [ 55.371223837137222, 24.767581982203758 ], [ 55.371315032243729, 24.767581982203758 ], [ 55.371304303407669, 24.767635565237544 ], [ 55.371218472719193, 24.767645307607321 ] ] ] } },
{ "type": "Feature", "properties": { "id": 6, "class": "Class1" }, "geometry": { "type": "Polygon", "coordinates": [ [ [ 55.370982438325882, 24.767616080497987 ], [ 55.370832234621048, 24.767608773720653 ], [ 55.370832234621048, 24.767601466943319 ], [ 55.370794683694839, 24.767606338128207 ], [ 55.37078931927681, 24.767596595758427 ], [ 55.37077859044075, 24.767596595758427 ], [ 55.37077322602272, 24.767606338128207 ], [ 55.370735675096512, 24.767611209313095 ], [ 55.370580106973648, 24.767611209313095 ], [ 55.370569378137589, 24.767596595758427 ], [ 55.370590835809708, 24.76757711101887 ], [ 55.370741039514542, 24.76757711101887 ], [ 55.37078395485878, 24.767591724573538 ], [ 55.370837599039078, 24.767591724573538 ], [ 55.370875149965286, 24.76757711101887 ], [ 55.370993167161942, 24.767581982203758 ], [ 55.370993167161942, 24.767608773720653 ], [ 55.370982438325882, 24.767616080497987 ] ] ] } },
{ "type": "Feature", "properties": { "id": 7, "class": "Class1" }, "geometry": { "type": "Polygon", "coordinates": [ [ [ 55.370987802743912, 24.767557626279313 ], [ 55.37052109837532, 24.767547883909533 ], [ 55.37052109837532, 24.767528399169976 ], [ 55.370505005121231, 24.767528399169976 ], [ 55.370505005121231, 24.767518656800199 ], [ 55.370987802743912, 24.767518656800199 ], [ 55.370987802743912, 24.767557626279313 ] ] ] } },
{ "type": "Feature", "properties": { "id": 8, "class": "Class1" }, "geometry": { "type": "Polygon", "coordinates": [ [ [ 55.369019061326981, 24.767543012724644 ], [ 55.368917137384415, 24.767543012724644 ], [ 55.368906408548355, 24.76750404324553 ], [ 55.369019061326981, 24.76750404324553 ], [ 55.369019061326981, 24.767543012724644 ] ] ] } },
{ "type": "Feature", "properties": { "id": 9, "class": "Class1" }, "geometry": { "type": "Polygon", "coordinates": [ [ [ 55.370971709489822, 24.76750404324553 ], [ 55.370901972055435, 24.76749430087575 ], [ 55.370494276285172, 24.76749430087575 ], [ 55.370494276285172, 24.767469944951305 ], [ 55.37053719162941, 24.767460202581525 ], [ 55.370617657899857, 24.767460202581525 ], [ 55.370628386735916, 24.767469944951305 ], [ 55.370977073907852, 24.767469944951305 ], [ 55.370987802743912, 24.767474816136193 ], [ 55.370987802743912, 24.767499172060639 ], [ 55.370971709489822, 24.76750404324553 ] ] ] } },
{ "type": "Feature", "properties": { "id": 10, "class": "Class1" }, "geometry": { "type": "Polygon", "coordinates": [ [ [ 55.368858128786087, 24.767465073766413 ], [ 55.368852764368057, 24.767450460211744 ], [ 55.368868857622147, 24.767450460211744 ], [ 55.368868857622147, 24.767465073766413 ], [ 55.368858128786087, 24.767465073766413 ] ] ] } },
{ "type": "Feature", "properties": { "id": 11, "class": "Class1" }, "geometry": { "type": "Polygon", "coordinates": [ [ [ 55.371395498514175, 24.767328680589511 ], [ 55.371395498514175, 24.767314067034842 ], [ 55.371443778276443, 24.767318938219731 ], [ 55.371443778276443, 24.767328680589511 ], [ 55.371395498514175, 24.767328680589511 ] ] ] } },
{ "type": "Feature", "properties": { "id": 12, "class": "Class1" }, "geometry": { "type": "Polygon", "coordinates": [ [ [ 55.374072343111038, 24.768653642879428 ], [ 55.374072343111038, 24.768643900509648 ], [ 55.374099165201187, 24.768648771694536 ], [ 55.374099165201187, 24.768653642879428 ], [ 55.374072343111038, 24.768653642879428 ] ] ] } },
{ "type": "Feature", "properties": { "id": 13, "class": "Class1" }, "geometry": { "type": "Polygon", "coordinates": [ [ [ 55.374013334512711, 24.768668256434097 ], [ 55.374013334512711, 24.768643900509648 ], [ 55.374056249856949, 24.768643900509648 ], [ 55.374056249856949, 24.768658514064317 ], [ 55.374013334512711, 24.768668256434097 ] ] ] } },
{ "type": "Feature", "properties": { "id": 14, "class": "Class1" }, "geometry": { "type": "Polygon", "coordinates": [ [ [ 55.374415665864944, 24.768541605626972 ], [ 55.374415665864944, 24.768531863257191 ], [ 55.374437123537064, 24.768512378517634 ], [ 55.374410301446915, 24.768492893778078 ], [ 55.374421030282974, 24.768478280223409 ], [ 55.374463945627213, 24.768468537853629 ], [ 55.374480038881302, 24.768453924298964 ], [ 55.37453904747963, 24.768449053114072 ], [ 55.374544411897659, 24.768439310744295 ], [ 55.374581962823868, 24.768434439559403 ], [ 55.374667793512344, 24.768390598895401 ], [ 55.374683886766434, 24.768390598895401 ], [ 55.374689251184464, 24.768380856525621 ], [ 55.374726802110672, 24.768375985340732 ], [ 55.37476435303688, 24.768341887046507 ], [ 55.37478044629097, 24.768341887046507 ], [ 55.374807268381119, 24.768327273491838 ], [ 55.374828726053238, 24.768332144676727 ], [ 55.374834090471268, 24.768351629416284 ], [ 55.374817997217178, 24.768361371786064 ], [ 55.37476971745491, 24.768366242970952 ], [ 55.37476435303688, 24.768395470080289 ], [ 55.374753624200821, 24.768395470080289 ], [ 55.374748259782791, 24.76840521245007 ], [ 55.374657064676285, 24.768424697189626 ], [ 55.374657064676285, 24.768444181929183 ], [ 55.374646335840225, 24.768453924298964 ], [ 55.374576598405838, 24.768473409038521 ], [ 55.374571233987808, 24.768483151408297 ], [ 55.3745336830616, 24.768483151408297 ], [ 55.37453904747963, 24.768497764962966 ], [ 55.37451758980751, 24.768502636147858 ], [ 55.374512225389481, 24.768512378517634 ], [ 55.374496132135391, 24.768512378517634 ], [ 55.374485403299332, 24.768526992072303 ], [ 55.374415665864944, 24.768541605626972 ] ] ] } },
{ "type": "Feature", "properties": { "id": 15, "class": "Class1" }, "geometry": { "type": "Polygon", "coordinates": [ [ [ 55.374914556741714, 24.768337015861615 ], [ 55.374877005815506, 24.768332144676727 ], [ 55.374887734651566, 24.76831265993717 ], [ 55.374968200922012, 24.768298046382501 ], [ 55.374984294176102, 24.768283432827833 ], [ 55.375000387430191, 24.768249334533607 ], [ 55.375048667192459, 24.768244463348719 ], [ 55.375075489282608, 24.768232285386496 ], [ 55.375075489282608, 24.768224978609162 ], [ 55.375150591135025, 24.768205493869601 ], [ 55.375198870897293, 24.768205493869601 ], [ 55.375193506479263, 24.768234720978938 ], [ 55.375155955553055, 24.768259076903387 ], [ 55.375113040208817, 24.768263948088276 ], [ 55.375091582536697, 24.768283432827833 ], [ 55.375048667192459, 24.768302917567389 ], [ 55.375000387430191, 24.768307788752281 ], [ 55.374989658594131, 24.768317531122058 ], [ 55.374962836503983, 24.768317531122058 ], [ 55.374952107667923, 24.768327273491838 ], [ 55.374919921159744, 24.768327273491838 ], [ 55.374914556741714, 24.768337015861615 ] ] ] } },
{ "type": "Feature", "properties": { "id": 16, "class": "Class1" }, "geometry": { "type": "Polygon", "coordinates": [ [ [ 55.375204235315323, 24.768215236239381 ], [ 55.375198870897293, 24.768181137945156 ], [ 55.375241786241531, 24.768166524390487 ], [ 55.375257879495621, 24.768151910835819 ], [ 55.375257879495621, 24.768142168466042 ], [ 55.375338345766068, 24.768132426096262 ], [ 55.375349074602127, 24.768117812541593 ], [ 55.375375896692276, 24.768108070171813 ], [ 55.375386625528336, 24.768088585432256 ], [ 55.375402718782425, 24.768083714247368 ], [ 55.375450998544693, 24.768083714247368 ], [ 55.375472456216812, 24.768069100692699 ], [ 55.37553146481514, 24.768073971877588 ], [ 55.37552073597908, 24.768108070171813 ], [ 55.375477820634842, 24.768112941356705 ], [ 55.375477820634842, 24.768127554911374 ], [ 55.375467091798782, 24.76813729728115 ], [ 55.375450998544693, 24.76813729728115 ], [ 55.375429540872574, 24.768149475243376 ], [ 55.375381261110306, 24.768151910835819 ], [ 55.375370532274246, 24.768161653205599 ], [ 55.375306159257889, 24.768176266760268 ], [ 55.375300794839859, 24.768186009130044 ], [ 55.37528470158577, 24.768186009130044 ], [ 55.375236421823502, 24.768210365054493 ], [ 55.375204235315323, 24.768215236239381 ] ] ] } },
{ "type": "Feature", "properties": { "id": 17, "class": "Class1" }, "geometry": { "type": "Polygon", "coordinates": [ [ [ 55.376572161912918, 24.767698890641107 ], [ 55.376572161912918, 24.767640436422433 ], [ 55.376582890748978, 24.767640436422433 ], [ 55.376588255167007, 24.767616080497987 ], [ 55.376652628183365, 24.767616080497987 ], [ 55.376668721437454, 24.767606338128207 ], [ 55.376674085855484, 24.767581982203758 ], [ 55.376690179109573, 24.767581982203758 ], [ 55.376690179109573, 24.767591724573538 ], [ 55.37677600979805, 24.767581982203758 ], [ 55.376808196306229, 24.767596595758427 ], [ 55.376802831888199, 24.767611209313095 ], [ 55.376786738634109, 24.767620951682876 ], [ 55.376722365617752, 24.767635565237544 ], [ 55.376695543527603, 24.767657485569547 ], [ 55.376647263765335, 24.767664792346878 ], [ 55.376636534929276, 24.76766966353177 ], [ 55.376636534929276, 24.767679405901546 ], [ 55.376593619585037, 24.767684277086438 ], [ 55.376588255167007, 24.767698890641107 ], [ 55.376572161912918, 24.767698890641107 ] ] ] } },
{ "type": "Feature", "properties": { "id": 18, "class": "Class1" }, "geometry": { "type": "Polygon", "coordinates": [ [ [ 55.376379042863846, 24.766140111476499 ], [ 55.376320034265518, 24.766135240291607 ], [ 55.376309305429459, 24.76611575555205 ], [ 55.376314669847488, 24.766110884367162 ], [ 55.376438051462173, 24.766110884367162 ], [ 55.376443415880203, 24.766120626736939 ], [ 55.376459509134293, 24.76611575555205 ], [ 55.376459509134293, 24.766125497921831 ], [ 55.376384407281876, 24.766125497921831 ], [ 55.376379042863846, 24.766140111476499 ] ] ] } },
{ "type": "Feature", "properties": { "id": 19, "class": "Class1" }, "geometry": { "type": "Polygon", "coordinates": [ [ [ 55.37778452038765, 24.766144982661388 ], [ 55.37777379155159, 24.766140111476499 ], [ 55.37777379155159, 24.766125497921831 ], [ 55.377725511789322, 24.766135240291607 ], [ 55.377725511789322, 24.766120626736939 ], [ 55.377741605043411, 24.766110884367162 ], [ 55.37777915596962, 24.766110884367162 ], [ 55.377789884805679, 24.76611575555205 ], [ 55.37778452038765, 24.766144982661388 ] ] ] } },
{ "type": "Feature", "properties": { "id": 20, "class": "Class1" }, "geometry": { "type": "Polygon", "coordinates": [ [ [ 55.370456725358963, 24.761054594451966 ], [ 55.370408445596695, 24.761049723267075 ], [ 55.370408445596695, 24.761030238527518 ], [ 55.370456725358963, 24.761020496157741 ], [ 55.370456725358963, 24.761054594451966 ] ] ] } },
{ "type": "Feature", "properties": { "id": 21, "class": "Class1" }, "geometry": { "type": "Polygon", "coordinates": [ [ [ 55.375815778970718, 24.763736181733581 ], [ 55.375810414552689, 24.763738617326023 ], [ 55.375805050134659, 24.763736181733581 ], [ 55.375815778970718, 24.763736181733581 ] ] ] } },
{ "type": "Feature", "properties": { "id": 22, "class": "Class1" }, "geometry": { "type": "Polygon", "coordinates": [ [ [ 55.375976711511612, 24.762199322900972 ], [ 55.375971347093582, 24.762184709346304 ], [ 55.375982075929642, 24.762165224606747 ], [ 55.376105457544327, 24.762174966976527 ], [ 55.376116186380386, 24.762170095791639 ], [ 55.376116186380386, 24.762194451716084 ], [ 55.375976711511612, 24.762199322900972 ] ] ] } },
{ "type": "Feature", "properties": { "id": 23, "class": "Class1" }, "geometry": { "type": "Polygon", "coordinates": [ [ [ 55.375955253839493, 24.762194451716084 ], [ 55.375853329896927, 24.762194451716084 ], [ 55.375853329896927, 24.762174966976527 ], [ 55.375896245241165, 24.762174966976527 ], [ 55.375906974077225, 24.762165224606747 ], [ 55.375960618257523, 24.762170095791639 ], [ 55.375955253839493, 24.762194451716084 ] ] ] } }
]
}
