{
"type": "FeatureCollection",
"name": "cc917b32-dcc6-446f-a935-79ac1c01b6f3",
"crs": { "type": "name", "properties": { "name": "urn:ogc:def:crs:OGC:1.3:CRS84" } },
"features": [
{ "type": "Feature", "properties": { "id": 0, "class": "Class1" }, "geometry": { "type": "Polygon", "coordinates": [ [ [ 50.5366, 26.06087 ], [ 50.5366, 26.06051 ], [ 50.5366, 26.06051 ], [ 50.5366, 26.06087 ], [ 50.5366, 26.06087 ] ] ] } },
{ "type": "Feature", "properties": { "id": 1, "class": "Class1" }, "geometry": { "type": "Polygon", "coordinates": [ [ [ 50.5354, 26.06231 ], [ 50.5354, 26.06231 ], [ 50.5354, 26.06231 ], [ 50.5354, 26.06141 ], [ 50.5354, 26.06141 ], [ 50.5354, 26.06123 ], [ 50.5362, 26.06123 ], [ 50.5362, 26.06123 ], [ 50.5366, 26.06123 ], [ 50.5366, 26.06087 ], [ 50.5368, 26.06087 ], [ 50.5368, 26.06087 ], [ 50.5372, 26.06087 ], [ 50.5372, 26.06051 ], [ 50.5374, 26.06051 ], [ 50.5374, 26.06051 ], [ 50.5376, 26.06051 ], [ 50.5376, 26.05979 ], [ 50.5378, 26.05979 ], [ 50.5378, 26.05943 ], [ 50.5382, 26.05943 ], [ 50.5382, 26.05907 ], [ 50.5382, 26.05907 ], [ 50.5382, 26.05871 ], [ 50.5386, 26.05871 ], [ 50.5386, 26.05835 ], [ 50.5398, 26.05835 ], [ 50.5398, 26.05871 ], [ 50.54, 26.05871 ], [ 50.54, 26.05871 ], [ 50.5402, 26.05871 ], [ 50.5402, 26.05889 ], [ 50.5404, 26.05889 ], [ 50.5404, 26.05907 ], [ 50.5406, 26.05907 ], [ 50.5406, 26.05925 ], [ 50.5408, 26.05925 ], [ 50.5408, 26.05979 ], [ 50.5406, 26.05979 ], [ 50.5406, 26.06015 ], [ 50.54, 26.06015 ], [ 50.54, 26.05979 ], [ 50.5398, 26.05979 ], [ 50.5398, 26.06015 ], [ 50.5394, 26.06015 ], [ 50.5394, 26.06051 ], [ 50.539, 26.06051 ], [ 50.539, 26.06051 ], [ 50.539, 26.06051 ], [ 50.539, 26.06087 ], [ 50.5386, 26.06087 ], [ 50.5386, 26.06123 ], [ 50.5382, 26.06123 ], [ 50.5382, 26.06123 ], [ 50.5376, 26.06123 ], [ 50.5376, 26.06141 ], [ 50.5374, 26.06141 ], [ 50.5374, 26.06159 ], [ 50.537, 26.06159 ], [ 50.537, 26.06177 ], [ 50.5366, 26.06177 ], [ 50.5366, 26.06195 ], [ 50.5362, 26.06195 ], [ 50.5362, 26.06231 ], [ 50.5362, 26.06231 ], [ 50.5362, 26.06231 ], [ 50.5354, 26.06231 ] ] ] } }
]
}
