{
"type": "FeatureCollection",
"name": "tabankourt_methane_plumes_area",
"crs": { "type": "name", "properties": { "name": "urn:ogc:def:crs:OGC:1.3:CRS84" } },
"features": [
{ "type": "Feature", "properties": { "id": 0, "class": "Class1", "area_m2": 160501.75792428851 }, "geometry": { "type": "Polygon", "coordinates": [ [ [ 7.611976244729287, 28.638020280783579 ], [ 7.611976244729287, 28.637840306309357 ], [ 7.611976244729287, 28.637840306309357 ], [ 7.611976244729287, 28.637480357360914 ], [ 7.61156477010002, 28.637480357360914 ], [ 7.61156477010002, 28.637480357360914 ], [ 7.610330346212217, 28.637480357360914 ], [ 7.610330346212217, 28.637480357360914 ], [ 7.60991887158295, 28.637480357360914 ], [ 7.60991887158295, 28.637840306309357 ], [ 7.609507396953683, 28.637840306309357 ], [ 7.609507396953683, 28.637480357360914 ], [ 7.609095922324416, 28.637480357360914 ], [ 7.609095922324416, 28.637480357360914 ], [ 7.608684447695148, 28.637480357360914 ], [ 7.608684447695148, 28.637120408412475 ], [ 7.608272973065881, 28.637120408412475 ], [ 7.608272973065881, 28.637120408412475 ], [ 7.608272973065881, 28.637120408412475 ], [ 7.608272973065881, 28.637120408412475 ], [ 7.607861498436614, 28.637120408412475 ], [ 7.607861498436614, 28.637480357360914 ], [ 7.607450023807346, 28.637480357360914 ], [ 7.607450023807346, 28.637120408412475 ], [ 7.607038549178079, 28.637120408412475 ], [ 7.607038549178079, 28.637120408412475 ], [ 7.607038549178079, 28.637120408412475 ], [ 7.607038549178079, 28.636760459464035 ], [ 7.606627074548811, 28.636760459464035 ], [ 7.606627074548811, 28.636400510515593 ], [ 7.607038549178079, 28.636400510515593 ], [ 7.607038549178079, 28.636040561567153 ], [ 7.607038549178079, 28.636040561567153 ], [ 7.607038549178079, 28.635680612618714 ], [ 7.607861498436614, 28.635680612618714 ], [ 7.607861498436614, 28.635320663670271 ], [ 7.608272973065881, 28.635320663670271 ], [ 7.608272973065881, 28.635320663670271 ], [ 7.609095922324416, 28.635320663670271 ], [ 7.609095922324416, 28.636040561567153 ], [ 7.609507396953683, 28.636040561567153 ], [ 7.609507396953683, 28.635680612618714 ], [ 7.609507396953683, 28.635680612618714 ], [ 7.609507396953683, 28.635680612618714 ], [ 7.611976244729287, 28.635680612618714 ], [ 7.611976244729287, 28.635680612618714 ], [ 7.612387719358554, 28.635680612618714 ], [ 7.612387719358554, 28.636040561567153 ], [ 7.612387719358554, 28.636040561567153 ], [ 7.612387719358554, 28.636040561567153 ], [ 7.613210668617089, 28.636040561567153 ], [ 7.613210668617089, 28.636400510515593 ], [ 7.613622143246356, 28.636400510515593 ], [ 7.613622143246356, 28.636400510515593 ], [ 7.614445092504891, 28.636400510515593 ], [ 7.614445092504891, 28.636400510515593 ], [ 7.614445092504891, 28.636400510515593 ], [ 7.614445092504891, 28.636400510515593 ], [ 7.614856567134158, 28.636400510515593 ], [ 7.614856567134158, 28.636760459464035 ], [ 7.615268041763426, 28.636760459464035 ], [ 7.615268041763426, 28.636760459464035 ], [ 7.615679516392693, 28.636760459464035 ], [ 7.615679516392693, 28.637120408412475 ], [ 7.61609099102196, 28.637120408412475 ], [ 7.61609099102196, 28.637480357360914 ], [ 7.615679516392693, 28.637480357360914 ], [ 7.615679516392693, 28.637480357360914 ], [ 7.614856567134158, 28.637480357360914 ], [ 7.614856567134158, 28.637840306309357 ], [ 7.614033617875624, 28.637840306309357 ], [ 7.614033617875624, 28.638020280783579 ], [ 7.613210668617089, 28.638020280783579 ], [ 7.613210668617089, 28.637840306309357 ], [ 7.612799193987821, 28.637840306309357 ], [ 7.612799193987821, 28.638020280783579 ], [ 7.611976244729287, 28.638020280783579 ] ] ] } }
]
}
